Longitude,Latitude,Hospital_Name,Type,Address,LGAName,Link
143.6646,-38.7539,APOLLO BAY PUBLIC HOSPITAL,PUBLIC,75 MCLACHLAN APOLLO BAY 3233,APOLLO BAY,https://apollobaymedicalcentre.net.au/
142.9323,-37.2787,ARARAT PUBLIC HOSPITAL,PUBLIC,5 GIRDLESTONE St ARARAT 3377,ARARAT,https://eghs.net.au/
144.4325,-37.6781,BACCHUS MARSH PUBLIC HOSPITAL,PUBLIC,29-35 GRANT BACCHUS MARSH 3340,BACCHUS MARSH,https://bmm.wh.org.au/
147.6083,-37.8317,BAIRNSDALE PUBLIC HOSPITAL,PUBLIC,122 DAY BAIRNSDALE 3875,BAIRNSDALE,https://www.easternhealth.org.au/
143.8322861,-37.54055256,BALLARAT DAY PROCEDURE CENTRE,PRIVATE,1117-1123 HOWITT BALLARAT 3355,BALLARAT,https://www.curagroup.com.au/ballarat-day-procedure-centre
143.8519851,-37.5430748,BALLARAT SURGICENTRE,PRIVATE,5-Sep WOOD BALLARAT 3350,BALLARAT,https://www.ballaratsurgicentre.com.au/
143.8476,-37.5575,ST JOHN OF GOD - BALLARAT,PRIVATE,101 DRUMMOND BALLARAT 3350,BALLARAT,https://www.sjog.org.au/ballarat
143.8474,-37.5587,BALLARAT BASE PUBLIC HOSPITAL,PUBLIC,1 DRUMMOND BALLARAT CENTRAL 3350,BALLARAT CENTRAL,https://www.bhs.org.au/
143.8419,-37.5639,QUEEN ELIZABETH - BALLARAT,PUBLIC,102 ASCOT BALLARAT CENTRAL 3350,BALLARAT CENTRAL,https://www.bhs.org.au/services-and-clinics/queen-elizabeth-centre/
145.1075879,-37.70532861,DIAVERUM - DIAMOND VALLEY,PRIVATE,15 GRIMSHAW BANYULE 3088,BANYULE,https://www.diaverum.com/en-au/find-a-clinic/diaverum-diamond-valley/
145.0601726,-37.73049186,HEIDELBERG ENDOSCOPY CENTRE,PRIVATE,177-179 NORTHERN BANYULE 3081,BANYULE,https://heidelbergendoscopy.com.au/
145.0449,-37.767,IVANHOE ENDOSCOPY CENTRE,PRIVATE,226 UPPER HEIDELBERG BANYULE 3079,BANYULE,https://ivanhoeendoscopy.com.au/
145.0312,-37.7634,NORTH EASTERN REHAB CENTRE,PRIVATE,134-146 FORD BANYULE 3079,BANYULE,http://www.northeasternrehabilitationcentre.com.au/
145.0603,-37.7551,WARRINGAL PRIVATE HOSPITAL,PRIVATE,216 BURGUNDY BANYULE 3084,BANYULE,http://www.warringalprivate.com.au/
145.9540862,-38.02207501,NEERIM DISTRICT HEALTH SERVICES,PRIVATE,29-39 MAIN NEERIM BAW BAW 3831,BAW BAW,http://www.neerimhealth.org.au/
144.9918171,-37.91255965,BRIGHTON PLASTIC SURGERY,PRIVATE,206 NEW BAYSIDE 3186,BAYSIDE,http://www.plasticsurgeryaustralia.com/
144.9915302,-37.91188999,CABRINI HOSPITAL - BRIGHTON,PRIVATE,237-243 NEW BAYSIDE 3186,BAYSIDE,https://www.cabrini.com.au/locations/cabrini-brighton/
145.0025924,-37.91368926,EPWORTH REHAB - BRIGHTON,PRIVATE,85-93 WILSON BAYSIDE 3186,BAYSIDE,https://www.epworth.org.au/who-we-are/our-locations/epworth-brighton
145.00373,-37.94243117,LINACRE PRIVATE HOSPITAL,PRIVATE,Dec-16 LINACRE BAYSIDE 3188,BAYSIDE,http://www.linacreprivate.com.au/
145.0079376,-37.90656151,MANDOMETER BRIGHTON,PRIVATE,412-414 BAY BAYSIDE 3186,BAYSIDE,https://mandometer.com.au/
143.3822,-37.4308,BEAUFORT PUBLIC HOSPITAL,PUBLIC,24-28 HAVELOCK BEAUFORT 3373,BEAUFORT,https://bshs.org.au/
146.6914,-36.3495,BEECHWORTH PUBLIC HOSPITAL,PUBLIC,52 SYDNEY BEECHWORTH 3747,BEECHWORTH,http://www.beechworthhealthservice.com.au/
145.9935,-36.5549,BENALLA PUBLIC HOSPITAL,PUBLIC,47-63 COSTER BENALLA 3672,BENALLA,http://www.benallahospital.com.au/
144.2829,-36.7487,BENDIGO BASE PUBLIC HOSPITAL,PUBLIC,62 LUCAN BENDIGO 3550,BENDIGO,http://www.bendigohealth.org.au/
144.28,-36.7513,BENDIGO PUBLIC HOSPITAL,PUBLIC,100A BARNARD BENDIGO 3550,BENDIGO,https://www.bendigohealth.org.au/
145.0635,-37.9209,MONASH MEDICAL - MOORABBIN,PUBLIC,823-865 CENTRE BENTLEIGH EAST 3165,BENTLEIGH EAST,https://monashhealth.org/contact/moorabbin-hospital/
145.347,-38.045,CASEY PUBLIC HOSPITAL,PUBLIC,62-70 KANGAN BERWICK 3806,BERWICK,https://monashhealth.org/contact/casey-hospital/
142.9159,-35.9802,BIRCHIP PUBLIC HOSPITAL,PUBLIC,24-26 DUNCAN BIRCHIP 3483,BIRCHIP,http://www.birchiphospital.com.au/
143.7273,-36.112,BOORT PUBLIC HOSPITAL,PUBLIC,31 KINIRY BOORT 3537,BOORT,http://www.bdh.vic.gov.au/
145.0483,-37.8087,COTHAM PRIVATE HOSPITAL,PRIVATE,209 COTHAM BOROONDARA 3101,BOROONDARA,http://www.cothamprivate.com.au/
145.0942,-37.8573,DELMONT PRIVATE HOSPITAL,PRIVATE,298-308 WARRIGAL BOROONDARA 3146,BOROONDARA,http://www.delmonthospital.com.au/
145.0228541,-37.82130969,EPWORTH HOSPITAL - HAWTHORN,PRIVATE,46-52 BURWOOD BOROONDARA 3122,BOROONDARA,https://www.epworth.org.au/Our-Locations/Hawthorn
145.0546326,-37.84594303,EPWORTH REHAB - CAMBERWELL,PRIVATE,888 TOORAK BOROONDARA 3124,BOROONDARA,https://www.epworth.org.au/who-we-are/our-locations/epworth-camberwell
145.0940256,-37.85808926,GLEN IRIS PRIVATE,PRIVATE,314 WARRIGAL BOROONDARA 3146,BOROONDARA,http://www.giprivate.com.au/
145.0309157,-37.81934502,GLENFERRIE PRIVATE HOSPITAL,PRIVATE,29 HILDA BOROONDARA 3122,BOROONDARA,http://www.glenferrieprivate.com.au/
145.0624,-37.7944,KEW ENDOSCOPY CENTRE,PRIVATE,828 HIGH BOROONDARA 3102,BOROONDARA,https://www.melbendoscopy.com.au/Our-Centres/Kew-Endoscopy/
145.0811181,-37.82745243,LINLEY CLINIC,PRIVATE,25 BRYSON BOROONDARA 3126,BOROONDARA,http://www.linleyclinic.com.au/
145.024,-37.8065,ST VINCENTS PRIVATE HOSPITAL - KEW,PRIVATE,5 STUDLEY BOROONDARA 3101,BOROONDARA,https://www.svph.org.au/hospitals/kew
145.0555,-37.8325,VISION DAY SURGERY CAMBERWELL,PRIVATE,25-27 DENMARK HILL BOROONDARA 3123,BOROONDARA,https://visioneyeinstitute.com.au/locations/melbourne/camberwell/
145.1183651,-37.81391215,BOX HILL PUBLIC HOSPITAL,PUBLIC,8 ARNOLD BOX HILL 3128,BOX HILL,https://www.easternhealth.org.au/locations/box-hill-hospital
146.9661,-36.733,BRIGHT PUBLIC HOSPITAL,PUBLIC,36-42 COBDEN BRIGHT 3741,BRIGHT,http://www.alpinehealth.org.au/
144.8325251,-37.77769001,DR SCOPE,PRIVATE,493 BALLARAT BRIMBANK 3020,BRIMBANK,https://www.drscope.com.au/
144.8159972,-37.76104509,FRESENIUS SUNSHINE DIALYSIS,PRIVATE,147-149 FURLONG BRIMBANK 3021,BRIMBANK,https://www.freseniuskidneycare.com.au/dialysis-clinic/sunshine
144.7586258,-37.69335073,HOBSONS BAY ENDO - SYDENHAM,PRIVATE,566 MELTON BRIMBANK 3037,BRIMBANK,https://www.hobsonsbayendoscopy.com.au/location/sydenham/
144.8338306,-37.71966534,KEILOR PRIVATE,PRIVATE,12A KENNEDY BRIMBANK 3036,BRIMBANK,https://www.keilorprivate.com.au/
144.7794,-37.744,ST ALBANS ENDOSCOPY CENTRE,PRIVATE,328-330 STATION BRIMBANK 3021,BRIMBANK,http://www.stalbansendoscopy.com.au/
144.8162628,-37.76103061,WESTERN DAY SURGERY,PRIVATE,145 FURLONG BRIMBANK 3021,BRIMBANK,https://www.westerndaysurgery.com.au/
145.0548,-37.7011,BUNDOORA EXTENDED CARE,PUBLIC,1231 PLENTY BUNDOORA 3083,BUNDOORA,https://www.nh.org.au/location/bundoora/
143.1379,-38.2371,CAMPERDOWN PUBLIC HOSPITAL,PUBLIC,9 ROBINSON CAMPERDOWN 3260,CAMPERDOWN,https://southwesthealthcare.com.au/location/camperdown-hospital/
145.0618,-37.8163,MERCY HEALTH O'CONNELL FAMILY CENTRE,PUBLIC,6 MONT ALBERT CANTERBURY 3126,CANTERBURY,https://health-services.mercyhealth.com.au/our-health-services/oconnell-family-centre/
144.8846,-38.3619,ROSEBUD PUBLIC HOSPITAL,PUBLIC,1527 POINT NEPEAN CAPEL SOUND 3940,CAPEL SOUND,http://www.peninsulahealth.org.au/locations/rosebud-hospital/
144.9645,-37.7993,ROYAL DENTAL HOSPITAL,PUBLIC,720 SWANSTON CARLTON 3053,CARLTON,https://www.dhsv.org.au/
145.3143677,-38.02470988,CASEY DAY PROCEDURE,PRIVATE,30-32 VERDUN CASEY 3805,CASEY,http://www.directendoscopy.com.au/locations
145.3452878,-38.04527898,CASEY RADIATION ONCOLOGY CENTRE,PRIVATE,Feb-55 KANGAN CASEY 3806,CASEY,https://www.epworth.org.au/Our-Services/Cancer-Care/Casey-Radiation-Oncology-Centre
145.2685,-38.0315,HAMPTON PARK WOMENS,PRIVATE,4 WARANA CASEY 3976,CASEY,http://www.hpwh.com.au/
145.3446527,-38.03458049,HYPERBARIC HEALTH - BERWICK,PRIVATE,3 GIBB CASEY 3806,CASEY,https://www.hyperbarichealth.com.au/locations/berwick/
145.3447,-38.0346,ST JOHN OF GOD - BERWICK,PRIVATE,3 GIBB CASEY 3806,CASEY,https://www.sjog.org.au/our-locations/st-john-of-god-berwick-hospital
145.3452922,-38.04526109,ST JOHN OF GOD - BERWICK ONCOLOGY,PRIVATE,Jan-55 KANGAN CASEY 3806,CASEY,https://www.sjog.org.au/our-locations/st-john-of-god-berwick-hospital
145.3465186,-38.03349627,SURGICENTRE AND EYE -BERWICK,PRIVATE,22 LANGMORE CASEY 3806,CASEY,http://www.southerncrossvet.com.au/
141.3928,-37.5903,CASTERTON PUBLIC HOSPITAL,PUBLIC,63 RUSSELL CASTERTON 3311,CASTERTON,https://castertonmemorialhospital.com.au/
144.2121,-37.0526,CASTLEMAINE PUBLIC HOSPITAL,PUBLIC,142 CORNISH CASTLEMAINE 3450,CASTLEMAINE,https://www.castlemainehealth.org.au/
145.0167,-37.8824,CAULFIELD PUBLIC HOSPITAL,PUBLIC,260 KOOYONG CAULFIELD 3162,CAULFIELD,https://www.alfredhealth.org.au/caulfield
145.0132,-37.8968,CALVARY PUBLIC HOSPITAL,PUBLIC,476-482 KOOYONG CAULFIELD SOUTH 3162,CAULFIELD SOUTH,http://www.bethlehem.org.au/
143.3525055,-36.26923847,CHARLTON PUBLIC HOSPITAL,PUBLIC,4 LEARMONTH CHARLTON 3525,CHARLTON,https://ewhs.org.au/charltoncampus.html
145.1224,-37.9205,MONASH MEDICAL - CLAYTON,PUBLIC,246 CLAYTON CLAYTON 3168,CLAYTON,https://monashhealth.org/contact/monash-medical-centre/
145.6512,-35.9165,COBRAM PUBLIC HOSPITAL,PUBLIC,24-32 BROADWAY COBRAM 3644,COBRAM,https://ncnhealth.org.au/locations-ncn-health/cobram/
144.2147,-35.8003,COHUNA PUBLIC HOSPITAL,PUBLIC,144-158 KING GEORGE COHUNA 3568,COHUNA,http://www.cdh.vic.gov.au/
143.5839,-38.3415,COLAC PUBLIC HOSPITAL,PUBLIC,12 CONNOR COLAC 3250,COLAC,https://cah.vic.gov.au/
141.6925,-37.5998,COLERAINE PUBLIC HOSPITAL,PUBLIC,71 MCLEOD COLERAINE 3315,COLERAINE,https://wdhs.net/v2/campuses/coleraine-and-district-health-service/
147.9032,-36.1988,CORRYONG PUBLIC HOSPITAL,PUBLIC,16-20 KIELL CORRYONG 3707,CORRYONG,https://www.corryonghealth.org.au/
144.9198,-37.5964,CRAIGIEBURN PUBLIC HOSPITAL,PUBLIC,274-304 CRAIGIEBURN CRAIGIEBURN 3064,CRAIGIEBURN,https://www.nh.org.au/location/craigieburn/
145.2804,-38.1132,CRANBOURNE PUBLIC HOSPITAL,PUBLIC,140-154 SLADEN CRANBOURNE 3977,CRANBOURNE,https://monashhealth.org/contact/cranbourne-integrated-care-centre/
143.8917,-37.4206,CRESWICK PUBLIC HOSPITAL,PUBLIC,1 NAPIER CRESWICK 3363,CRESWICK,https://www.chrh.org.au/creswick-health/
145.2185,-37.977,DANDENONG PUBLIC HOSPITAL,PUBLIC,135 DAVID DANDENONG 3175,DANDENONG,https://monashhealth.org/contact/dandenong-hospital/
145.0175764,-37.78110112,DAREBIN ENDOSCOPY SERVICES,PRIVATE,42 STATION DAREBIN 3078,DAREBIN,https://www.darebinendo.com.au/
145.0445003,-37.71653676,HYPERBARIC HEALTH BUNDOORA,PRIVATE,920 PLENTY DAREBIN 3083,DAREBIN,https://www.hyperbarichealth.com.au/locations/bundoora/
145.0445003,-37.71653676,LA TROBE PRIVATE HOSPITAL,PRIVATE,920 PLENTY DAREBIN 3083,DAREBIN,https://latrobeprivatehospital.com.au/
145.0078355,-37.74680419,PANCH DAY SURGERY CENTRE,PRIVATE,84-90 HOTHAM DAREBIN 3072,DAREBIN,https://www.panch.com.au/
144.9981,-37.7176,RESERVOIR DAY PROCEDURE CENTRE,PRIVATE,73-75 PINE DAREBIN 3073,DAREBIN,https://reservoirprivatehospital.com.au/
144.1455,-37.3376,DAYLESFORD PUBLIC HOSPITAL,PUBLIC,15 HOSPITAL DAYLESFORD 3460,DAYLESFORD,https://www.chrh.org.au/daylesford-health/
142.0242,-36.4497,DIMBOOLA PUBLIC HOSPITAL,PUBLIC,32 ANDERSON DIMBOOLA 3414,DIMBOOLA,http://www.wimmerahealth.com/
142.9764,-36.3666,DONALD PUBLIC HOSPITAL,PUBLIC,1A AITKEN DONALD 3480,DONALD,https://ewhs.org.au/donaldcampus.html
143.7352,-36.8554,DUNOLLY PUBLIC HOSPITAL,PUBLIC,20 HAVELOCK DUNOLLY 3472,DUNOLLY,http://www.dunollyhospital.org.au/
144.9773802,-37.81187259,EYE AND EAR ON THE PARK,PUBLIC,2 ST ANDREWS EAST MELBOURNE 3002,EAST MELBOURNE,https://www.eyeandear.org.au/our-services/specialist-clinics/parkville/
144.9761,-37.8088,ROYAL VIC EYE AND EAR,PUBLIC,32 GISBORNE EAST MELBOURNE 3002,EAST MELBOURNE,https://royal-vic-eye-and-ear.com.au
144.7486,-36.1382,ECHUCA PUBLIC HOSPITAL,PUBLIC,226 SERVICE ECHUCA 3564,ECHUCA,http://www.erh.org.au/
141.2891,-37.0352,EDENHOPE PUBLIC HOSPITAL,PUBLIC,124-134 ELIZABETH EDENHOPE 3318,EDENHOPE,http://www.edmh.org.au/
145.0151,-37.6526,NORTHERN PUBLIC HOSPITAL,PUBLIC,185 COOPER EPPING 3076,EPPING,https://www.nh.org.au/
144.9751,-37.8068,ST VINCENTS PUBLIC HOSPITAL,PUBLIC,41 VICTORIA FITZROY 3065,FITZROY,http://www.svhm.org.au/
144.8871,-37.7911,ORYGEN YOUTH HEALTH,PUBLIC,10 MAVIS FOOTSCRAY 3011,FOOTSCRAY,https://oyh.org.au/
144.8876,-37.7974,TWEDDLE CHILD FAMILY HOSPITAL,PUBLIC,49-71 ADELAIDE FOOTSCRAY 3011,FOOTSCRAY,http://www.tweddle.org.au/
144.8869764,-37.79162173,URSULA FRAYNE CENTRE,PUBLIC,160 GORDON FOOTSCRAY 3011,FOOTSCRAY,https://www.sjog.org.au/our-locations/st-john-of-god-murdoch-hospital/ursula-frayne-centre
144.8874,-37.7924,WESTERN HOSPITAL - FOOTSCRAY,PUBLIC,160 GORDON FOOTSCRAY 3011,FOOTSCRAY,https://www.westernhealth.org.au/OurSites/WesternHospital/Pages/default.aspx
145.164,-37.8524,PETER JAMES CENTRE,PUBLIC,321-345 BURWOOD FOREST HILL 3131,FOREST HILL,https://www.easternhealth.org.au/locations/peter-james-centre
146.2062,-38.6587,FOSTER PUBLIC HOSPITAL,PUBLIC,83 STATION FOSTER 3960,FOSTER,https://www.basscoasthealth.org.au/hospitals/foster-hospital
145.1433793,-38.14818863,BAYSIDE DAY PROCEDURE CENTRE,PRIVATE,141 CRANBOURNE FRANKSTON 3199,FRANKSTON,https://www.directendoscopy.com.au/
145.1331,-38.1544,FRANKSTON PRIVATE HOSPITAL,PRIVATE,26 FRANKSTON-FLINDERS FRANKSTON 3199,FRANKSTON,https://specialists.healthscope.com.au/frankston-private
145.1293,-38.1509,FRANKSTON PUBLIC HOSPITAL,PUBLIC,2 HASTINGS FRANKSTON 3199,FRANKSTON,http://www.peninsulahealth.org.au/locations/frankston/
145.1330654,-38.15441802,FRANKSTON RADIATION ONCOLOGY,PRIVATE,26 FRANKSTON-FLINDERS FRANKSTON 3199,FRANKSTON,https://www.peninsulahealth.org.au/services/services-a-z/cancer-services/radiation-oncology/
145.1496,-38.1728,MOUNT ELIZA REHAB - FRANKSTON,PUBLIC,125 GOLF LINKS FRANKSTON 3199,FRANKSTON,https://www.peninsulahealth.org.au/services/services-a-z/mount-eliza-rehabilitation-hospital/
145.1701086,-38.15780753,PENINSULA PRIVATE HOSPITAL,PRIVATE,525 MCCLELLAND FRANKSTON 3910,FRANKSTON,http://www.peninsulaph.com.au/
145.132,-38.146,SOUTHERN EYE CENTRE,PRIVATE,42-44 CRANBOURNE FRANKSTON 3199,FRANKSTON,http://www.southerneye.com.au/
145.1563256,-38.15296378,ST JOHN OF GOD - REHAB,PRIVATE,251-265 CRANBOURNE FRANKSTON 3199,FRANKSTON,http://www.sjog.org.au/nepeanrehab
144.3654,-38.1512,GEELONG UNIVERSITY PUBLIC HOSPITAL,PUBLIC,272-322 RYRIE GEELONG 3220,GEELONG,https://www.barwonhealth.org.au/locations/geelong-university-hospital
145.0366573,-37.93305221,BAYSIDE ENDOSCOPY DAY HOSPITAL,PRIVATE,437-441 SOUTH GLEN EIRA 3204,GLEN EIRA,https://www.melbendoscopy.com.au/
145.0093215,-37.88552939,CABRINI REHAB - ELSTERNWICK,PRIVATE,494-498 GLEN HUNTLY GLEN EIRA 3185,GLEN EIRA,https://www.cabrini.com.au/locations/cabrini-elsternwick/
145.0101373,-37.8849707,CABRINI REHAB - HOPETOUN,PRIVATE,2-Jun HOPETOUN GLEN EIRA 3185,GLEN EIRA,https://www.cabrini.com.au/locations/hopetoun-rehabilitation/
145.0192142,-37.90043471,GLEN EIRA DAY SURGERY,PRIVATE,544 HAWTHORN GLEN EIRA 3162,GLEN EIRA,https://www.caulfieldendoscopy.com.au/
145.0031,-37.8698,MASADA PRIVATE HOSPITAL,PRIVATE,24-48 BALACLAVA GLEN EIRA 3183,GLEN EIRA,http://www.masadaprivate.com.au/
145.0304,-37.8878,MELBOURNE DAY SURGERY CENTRE,PRIVATE,961 GLEN HUNTLY GLEN EIRA 3162,GLEN EIRA,https://melbournedaysurgery.com.au/index.html
145.0188302,-37.86894131,MELBOURNE MEDIBRAIN CENTRE,PRIVATE,631 INKERMAN GLEN EIRA 3161,GLEN EIRA,https://medibraincentre.com.au/
145.0412331,-37.92012465,SURGICENTRE - BENTLEIGH,PRIVATE,157 JASPER GLEN EIRA 3204,GLEN EIRA,http://www.surgicentre.com.au/locations/bentleigh/
144.2615,-36.7619,BENDIGO DAY SURGERY,PRIVATE,1-Jul CHUM GREATER BENDIGO 3555,GREATER BENDIGO,http://www.bendigodaysurgery.com.au/
144.2640013,-36.76207693,ST JOHN OF GOD - BENDIGO,PRIVATE,133-145 LILY GREATER BENDIGO 3550,GREATER BENDIGO,http://www.sjog.org.au/bendigo
145.2169102,-37.97723278,CORYMBIA HOUSE,PRIVATE,92-94 DAVID GREATER DANDENONG 3175,GREATER DANDENONG,https://www.peninsulahealth.org.au/services/services-a-z/corymbia-house/
145.2233009,-37.97424741,DANDENONG DAY SURGERY CENTRE,PRIVATE,1-Mar FALKINER GREATER DANDENONG 3175,GREATER DANDENONG,http://www.surgeonsdps.com.au/
145.1897,-37.9671,NOBLE PARK ENDOSCOPY CENTRE,PRIVATE,1304 HEATHERTON GREATER DANDENONG 3174,GREATER DANDENONG,https://www.nobleparkendoscopy.com.au/
145.1925,-37.9657,SOUTH EASTERN PRIVATE HOSPITAL,PRIVATE,313-329 PRINCES GREATER DANDENONG 3174,GREATER DANDENONG,http://www.southeasternprivate.com.au/
145.1496,-37.9495,SPRINGVALE ENDOSCOPY,PRIVATE,20 BALMORAL GREATER DANDENONG 3171,GREATER DANDENONG,https://springvaleendoscopy.com.au/
145.2133,-37.97,ST JOHN OF GOD - PINELODGE,PRIVATE,1480-1486 HEATHERTON GREATER DANDENONG 3175,GREATER DANDENONG,http://www.sjog.org.au/pinelodge
145.216202,-37.97733019,THE DIGESTIVE HEALTH CENTRE,PRIVATE,90 DAVID GREATER DANDENONG 3175,GREATER DANDENONG,http://www.digestivehealthcentre.com.au/
145.1493,-37.9514,WINDSOR AVENUE DAY SURGERY,PRIVATE,17 WINDSOR GREATER DANDENONG 3171,GREATER DANDENONG,https://www.windsoravesurgery.com.au/
144.3049395,-38.19422552,EPWORTH HOSPITAL - GEELONG,PRIVATE,1 EPWORTH GREATER GEELONG 3216,GREATER GEELONG,https://www.epworth.org.au/Our-Locations/Geelong
144.3932,-38.182,GEELONG CLINIC,PRIVATE,94-102 TOWNSEND GREATER GEELONG 3219,GREATER GEELONG,https://www.barwonhealth.org.au/services/item/geelong-clinic
144.364398,-38.15103532,GEELONG PRIVATE HOSPITAL,PRIVATE,56-58 BELLERINE GREATER GEELONG 3220,GREATER GEELONG,http://www.geelongprivatehospital.com.au/
144.3632152,-38.15107303,MONASH IVF GEELONG,PRIVATE,73-79 LITTLE RYRIE GREATER GEELONG 3220,GREATER GEELONG,https://monashivf.com/location/geelong/
144.3662,-38.1491,SPECIALIST GEELONG,PRIVATE,200 MALOP GREATER GEELONG 3220,GREATER GEELONG,https://www.specialistgeelong.com.au/
144.3578138,-38.15130066,ST JOHN OF GOD - GEELONG,PRIVATE,80 MYERS GREATER GEELONG 3220,GREATER GEELONG,https://www.sjog.org.au/our-locations/st-john-of-god-geelong-hospital
145.4108,-36.3593,SHEPPARTON PRIVATE HOSPITAL,PRIVATE,20 FITZGERALD GREATER SHEPPARTON 3630,GREATER SHEPPARTON,https://sheppartonprivate.com.au/
142.0301,-37.7373,HAMILTON BASE PUBLIC HOSPITAL,PUBLIC,20 FOSTER HAMILTON 3300,HAMILTON,https://wdhs.net/v2/campuses/hamilton-base-hospital/
145.5288,-37.6469,HEALESVILLE PUBLIC HOSPITAL,PUBLIC,377 MAROONDAH HEALESVILLE 3777,HEALESVILLE,https://www.easternhealth.org.au/locations/healesville-hospital-and-yarra-valle%E2%80%A6
144.7097,-36.9261,HEATHCOTE PUBLIC HOSPITAL,PUBLIC,39-55 HOSPITAL HEATHCOTE 3523,HEATHCOTE,http://www.heathcotehealth.org/
145.0799,-37.9544,KINGSTON CENTRE HOSPITAL,PUBLIC,400 WARRIGAL HEATHERTON 3202,HEATHERTON,https://monashhealth.org/contact/kingston-centre/
145.0604,-37.7565,AUSTIN PUBLIC HOSPITAL,PUBLIC,145 STUDLEY HEIDELBERG 3084,HEIDELBERG,https://www.austin.org.au/
145.0609,-37.7563,MERCY WOMENS HOSPITAL,PUBLIC,163 STUDLEY HEIDELBERG 3084,HEIDELBERG,https://health-services.mercyhealth.com.au/our-health-services/mercy-hospital-w%E2%80%A6
145.0474,-37.7561,HEIDELBERG REPAT HOSPITAL,PUBLIC,300 WATERDALE HEIDELBERG HEIGHTS 3081,HEIDELBERG HEIGHTS,https://www.austin.org.au/heidelberg-repatriation-hospital/
141.6246,-38.1379,HEYWOOD PUBLIC HOSPITAL,PUBLIC,21 BARCLAY HEYWOOD 3304,HEYWOOD,https://heywoodruralhealth.vic.gov.au/
144.8284825,-37.86964791,HOBSONS BAY ENDO - ALTONA,PRIVATE,3-May SARGOOD HOBSONS BAY 3018,HOBSONS BAY,https://hobsonhealthcare.com.au/specialties/endoscopy-colonoscopy
142.3669,-35.7326,HOPETOUN PUBLIC HOSPITAL,PUBLIC,12 MITCHELL HOPETOUN 3396,HOPETOUN,https://rnh.net.au/our-campuses/hopetoun/
142.2092,-36.7119,HORSHAM PUBLIC HOSPITAL,PUBLIC,83 BAILLIE HORSHAM 3400,HORSHAM,https://www.whcg.org.au/horsham-hospital
144.7496,-37.5798,GOONAWARRA DAY HOSPITAL,PRIVATE,11 DORNOCH HUME 3429,HUME,http://gmcgp.com/
143.8734,-36.5723,INGLEWOOD PUBLIC HOSPITAL,PUBLIC,3 HOSPITAL INGLEWOOD 3517,INGLEWOOD,http://www.idhs.vic.gov.au/
144.9134,-37.6842,BROADMEADOWS HEALTH SERVICE,PUBLIC,35-57 JOHNSTONE JACANA 3047,JACANA,https://www.nh.org.au/location/broadmeadows-hospital/
141.9844,-36.1409,JEPARIT PUBLIC HOSPITAL,PUBLIC,2 CHARLES JEPARIT 3423,JEPARIT,https://www.jeparithospital.org.au/
141.246,-36.3815,KANIVA PUBLIC HOSPITAL,PUBLIC,1-Jul ROACHE KANIVA 3419,KANIVA,https://www.wimmerahealth.com.au/hospital-kaniva
143.9176,-35.7242,KERANG PUBLIC HOSPITAL,PUBLIC,13-15 BURGOYNE KERANG 3579,KERANG,https://www.kdh.org.au/
145.0158,-37.805,CARITAS CHRISTI HOSPICE,PUBLIC,104 STUDLEY PARK KEW 3101,KEW,https://www.caritaschristi.org.au/
145.0238,-37.7893,ROYAL TALBOT REHABILITATION,PUBLIC,1 YARRA KEW 3101,KEW,https://www.austin.org.au/royal-talbot-rehabilitation-centre/
145.0532,-37.8092,ST GEORGES HEALTH SERVICE,PUBLIC,283 COTHAM KEW 3101,KEW,https://www.sgsc.org.au/
144.9581,-37.3018,KILMORE PUBLIC HOSPITAL,PUBLIC,1 ANDERSON KILMORE 3764,KILMORE,https://www.kilmoredistricthealth.org.au/
145.1345672,-38.03371391,CHELSEA HEIGHTS ENDOSCOPY,PRIVATE,93 WELLS KINGSTON 3196,KINGSTON,http://www.chelseaheightsendoscopy.com.au/
145.0568024,-37.96046698,CHESTERVILLE DAY HOSPITAL,PRIVATE,28 CHESTERVILLE KINGSTON 3192,KINGSTON,https://www.curagroup.com.au/chesterville-day-hospital
145.0728365,-37.99062262,COMO PRIVATE HOSPITAL,PRIVATE,152-156 COMO KINGSTON 3195,KINGSTON,http://www.comoprivatehospital.com.au/
145.0500685,-37.93540507,HOLMESGLEN PRIVATE HOSPITAL,PRIVATE,488-490 SOUTH KINGSTON 3189,KINGSTON,https://www.holmesglenprivatehospital.com.au/
145.2276951,-37.84890356,KNOX PRIVATE HOSPITAL,PRIVATE,262 MOUNTAIN KNOX 3152,KNOX,http://www.knoxprivatehospital.com.au/
145.2683,-37.8555,MELBOURNE EASTERN HOSPITAL,PRIVATE,153-159 SCORESBY KNOX 3155,KNOX,https://www.easternhealth.org.au/locations/melbourne-eastern-hospital
145.4849499,-38.20156167,KOO WEE RUP PUBLIC HOSPITAL,PUBLIC,215 ROSSITER KOO WEE RUP 3981,KOO WEE RUP,http://www.kooweeruphospital.net.au/
145.8285,-38.4304,KORUMBURRA PUBLIC HOSPITAL,PUBLIC,65-77 BRIDGE KORUMBURRA 3950,KORUMBURRA,https://www.gshs.com.au/korumburra-hospital
145.0422,-36.3153,KYABRAM PUBLIC HOSPITAL,PUBLIC,86-96 FENAUGHTY KYABRAM 3620,KYABRAM,http://www.kyhealth.org.au/
144.4701,-37.2545,KYNETON PUBLIC HOSPITAL,PUBLIC,Jul-25 CAROLINE CHISHOLM KYNETON 3444,KYNETON,http://www.kynetonhealth.org.au/
146.4187,-38.2151,MARYVALE PRIVATE HOSPITAL,PRIVATE,286 MARYVALE LATROBE 3840,LATROBE,http://www.maryvaleph.com.au/
145.9501,-38.4873,LEONGATHA PUBLIC HOSPITAL,PUBLIC,64 KOONWARRA LEONGATHA 3953,LEONGATHA,https://www.gshs.com.au/leongatha-hospital
145.3514,-37.7566,LILYDALE PUBLIC HOSPITAL,PUBLIC,25 MARKET LILYDALE 3140,LILYDALE,https://www.yarrarangeshealth.net.au/locations/lilydale/
143.9808,-38.5455,LORNE PUBLIC HOSPITAL,PUBLIC,1 ALBERT LORNE 3232,LORNE,https://lornemedicalcentre.com.au/
146.9834,-37.9612,MAFFRA PUBLIC HOSPITAL,PUBLIC,42-48 KENT MAFFRA 3860,MAFFRA,https://www.cghs.com.au/hospitals/maffra-hospital/
144.064,-36.9927,MALDON PUBLIC HOSPITAL,PUBLIC,1 CHAPEL MALDON 3463,MALDON,http://www.maldhosp.vic.gov.au/
142.8808,-35.051,MANANGATANG PUBLIC HOSPITAL,PUBLIC,37-39 PIONEER MANANGATANG 3546,MANANGATANG,https://www.gshs.com.au/manangatang
145.1714915,-37.78999405,DONVALE REHAB HOSPITAL,PRIVATE,1119-1121 DONCASTER MANNINGHAM 3109,MANNINGHAM,http://www.donvalerehabilitationhospital.com.au/
145.1152,-37.7731,MANNINGHAM DAY CENTRE,PRIVATE,503/200 HIGH MANNINGHAM 3107,MANNINGHAM,https://www.estiahealth.com.au/manningham-day-therapy-centre
146.0865084,-37.05760484,MANSFIELD PUBLIC HOSPITAL,PUBLIC,51-53 HIGHETT MANSFIELD 3722,MANSFIELD,http://www.mdh.org.au/
144.8951,-37.8005,VISION DAY SURGERY FOOTSCRAY,PRIVATE,89 PAISLEY MARIBYRNONG 3011,MARIBYRNONG,http://www.visioneyeinstitute.com.au/locations/victoria/footscray/
144.8853872,-37.79198064,WESTERN GASTROENTEROLOGY,PRIVATE,30 ELEANOR MARIBYRNONG 3011,MARIBYRNONG,https://westerngastroservices.com.au/
144.885643,-37.79305693,WESTERN PRIVATE HOSPITAL,PRIVATE,1-Sep MARION MARIBYRNONG 3011,MARIBYRNONG,http://westernprivate.com.au/
144.8856565,-37.79307482,WESTERN RADIATION ONCOLOGY,PRIVATE,1-Sep MARION MARIBYRNONG 3011,MARIBYRNONG,https://westernradiationoncology.com.au/
145.2275022,-37.81978389,EASTSIDE ENDOSCOPY CENTRE,PRIVATE,33 WANTIRNA MAROONDAH 3134,MAROONDAH,https://www.eastsideendoscopy.com.au/
145.2887737,-37.80898803,MARIE STOPES - MAROONDAH,PRIVATE,415 DORSET MAROONDAH 3136,MAROONDAH,http://www.drmarie.org.au/
145.2439,-37.8114,RINGWOOD PRIVATE HOSPITAL,PRIVATE,36 MT DANDENONG MAROONDAH 3135,MAROONDAH,http://www.ringwoodprivatehospital.com.au/
145.2435164,-37.81124829,RINGWOOD RADIATION ONCOLOGY,PRIVATE,36 MT DANDENONG MAROONDAH 3135,MAROONDAH,https://ringwood-radiation-oncology.com.au
143.7383,-37.0451,MARYBOROUGH PUBLIC HOSPITAL,PUBLIC,75 CLARENDON MARYBOROUGH 3465,MARYBOROUGH,http://www.mdhs.vic.gov.au/
144.9821,-37.8456,ALFRED PUBLIC HOSPITAL,PUBLIC,55 COMMERCIAL MELBOURNE 3004,MELBOURNE,https://www.alfredhealth.org.au/the-alfred
144.9399083,-37.78867873,DIAVERUM - NORTH MELBOURNE,PRIVATE,185 BOUNDARY MELBOURNE 3051,MELBOURNE,https://www.diaverum.com/en-au/find-a-clinic/diaverum-north-melbourne/
144.9863067,-37.81630143,EAST MELBOURNE DAY CENTRE,PRIVATE,114-116 WELLINGTON MELBOURNE 3002,MELBOURNE,https://www.emdc.com.au/
144.9833987,-37.80968063,EAST MELBOURNE DAY HOSPITAL,PRIVATE,23 CLARENDON MELBOURNE 3002,MELBOURNE,https://www.emsdh.com.au/
144.9875479,-37.81566205,EPWORTH HOSPITAL - CLIVEDEN,PRIVATE,29-37 SIMPSON MELBOURNE 3002,MELBOURNE,http://www.epworth.org.au/Main-Site/Epworth-Cliveden.aspx
144.9841,-37.8107,EPWORTH HOSPITAL - FREEMASONS,PRIVATE,166 CLARENDON MELBOURNE 3002,MELBOURNE,https://www.epworth.org.au/Our-Locations/Freemasons
144.9547628,-37.79895826,FRANCES PERRY HOUSE,PRIVATE,20 FLEMINGTON MELBOURNE 3052,MELBOURNE,https://www.francesperryhouse.com.au/
144.9822879,-37.80928733,FREEMASONS MEDICAL CENTRE - EAST MLB,PRIVATE,320 VICTORIA MELBOURNE 3002,MELBOURNE,https://www.epworth.org.au/locations/freemasons-east-melbourne
144.9786716,-37.81676535,JOLIMONT ENDOSCOPY CENTRE,PRIVATE,201 WELLINGTON MELBOURNE 3002,MELBOURNE,https://jolimont.com.au/
144.9791,-37.8446,MELBOURNE ENDOSCOPY CENTRE,PRIVATE,517 ST KILDA MELBOURNE 3004,MELBOURNE,https://www.melbendoscopy.com.au/Our-Centres/Eastside-Endoscopy/
144.9714358,-37.8145675,MELBOURNE ORAL FACIAL SURGERY,PRIVATE,63 EXHIBITION MELBOURNE 3000,MELBOURNE,https://www.mofs.com.au/
144.9571,-37.799,MELBOURNE PRIVATE HOSPITAL,PRIVATE,1F ROYAL MELBOURNE 3052,MELBOURNE,https://melbourneprivatehospital.com.au/
144.9837,-37.8251,OLYMPIC PARK IMAGING,PRIVATE,60 OLYMPIC MELBOURNE 3004,MELBOURNE,https://olympicparkimaging.com.au/
144.9566333,-37.79999855,PETER MACCALLUM CANCER INSTITUTE,PUBLIC,305 GRATTAN MELBOURNE 3000,MELBOURNE,http://petermac.org/
144.968003,-37.80481219,SKIN AND CANCER FOUNDATION,PRIVATE,80 DRUMMOND MELBOURNE 3053,MELBOURNE,https://www.skincancerdaysurgery.com.au/
144.941,-37.8145,SPECIALIST DOCKLANDS,PRIVATE,22 RAKAIA MELBOURNE 3008,MELBOURNE,http://www.specialistsurgicentre.com.au/
144.9844614,-37.81192888,ST VINCENTS PRIVATE HOSPITAL - EAST MLB,PRIVATE,159 GREY MELBOURNE 3002,MELBOURNE,https://www.svph.org.au/hospitals/east-melbourne
144.9749984,-37.80848966,VICTORIA PARADE SURGERY,PRIVATE,100 VICTORIA MELBOURNE 3002,MELBOURNE,http://www.vpsc.com.au/vpsc.htm
144.559,-37.6865,MELTON WEST PUBLIC HOSPITAL,PUBLIC,195-209 BARRIES MELTON WEST 3337,MELTON WEST,https://health-services.melbourne/health-service/melton-health
142.1429,-34.1855,MILDURA BASE PUBLIC HOSPITAL,PRIVATE,216-240 ONTARIO MILDURA 3500,MILDURA,http://www.mildurabase.com.au/
142.1453,-34.1848,MILDURA PRIVATE HOSPITAL,PRIVATE,220-228 THIRTEENTH MILDURA 3500,MILDURA,https://www.milduraprivatehospital.com.au/
145.1208373,-37.92086339,JESSIE MCPHERSON HOSPITAL,PRIVATE,246 CLAYTON MONASH 3168,MONASH,http://www.jessiemcpherson.com.au/
145.1202,-37.9214,MELBOURNE ENDOSCOPY MONASH,PRIVATE,277-279 CLAYTON MONASH 3168,MONASH,https://www.melbendoscopy.com.au/Our-Centres/Clayton-Endoscopy/
145.1202884,-37.92090583,MONASH HOUSE PRIVATE HOSPITAL,PRIVATE,271 CLAYTON MONASH 3168,MONASH,https://monashhouseprivatehospital.com.au/
145.1206,-37.9218,MONASH SURGICAL HOSPITAL,PRIVATE,252-256 CLAYTON MONASH 3168,MONASH,https://msph.com.au/
145.1217,-37.9184,SIR JOHN MONASH HOSPITAL,PRIVATE,212-220 CLAYTON MONASH 3168,MONASH,https://curagroup.com.au/sir-john-monash-private-hospital
145.1053,-37.8681,SKIN CANCER DAY SURGERY,PRIVATE,19 CLEVELAND MONASH 3147,MONASH,https://www.skincancerdaysurgery.com.au/
145.165181,-37.8846424,THE GLEN ENDOSCOPY CENTRE,PRIVATE,302 SPRINGVALE MONASH 3150,MONASH,https://www.glenendoscopy.com.au/
145.2131,-37.9388,VALLEY PRIVATE HOSPITAL,PRIVATE,535-559 POLICE MONASH 3170,MONASH,https://www.valleyprivate.com.au/
145.1466179,-37.88034991,WAVERLEY ENDOSCOPY,PRIVATE,301 BLACKBURN MONASH 3149,MONASH,https://waverleyendoscopy.com.au/
145.1457,-37.8847,WAVERLEY PRIVATE HOSPITAL,PRIVATE,343-357 BLACKBURN MONASH 3149,MONASH,https://www.waverleyprivate.com.au/
144.9236382,-37.76579341,ESSENDON DAY PROCEDURE CENTRE,PRIVATE,665 MOUNT ALEXANDER MOONEE VALLEY 3039,MOONEE VALLEY,https://essendondpc.com.au/
144.8853814,-37.74846709,ESSENDON PRIVATE HOSPITAL,PRIVATE,35 ROSEHILL MOONEE VALLEY 3040,MOONEE VALLEY,https://www.essendonprivate.com.au/
144.9093796,-37.77115427,NORTHWEST DAY HOSPITAL,PRIVATE,221 MARIBYRNONG MOONEE VALLEY 3032,MOONEE VALLEY,https://www.theendoscopycentre.com.au/
144.2226728,-37.59918077,BALLAN BUSH NURSING HOSPITAL,PRIVATE,33 COWIE MOORABOOL 3342,MOORABOOL,https://www.ballanhealth.com.au/services/hospital/
144.9717073,-37.75648198,BRUNSWICK PRIVATE HOSPITAL,PRIVATE,82 MORELAND MORELAND 3056,MORELAND,http://www.brunswickprivate.com.au/
144.9647711,-37.7450167,COBURG ENDOSCOPY CENTRE,PRIVATE,15 MUNRO MORELAND 3058,MORELAND,http://coburgendo.com.au/
144.9474001,-37.7232293,DORSET REHAB CENTRE,PRIVATE,146 DERBY MORELAND 3044,MORELAND,http://www.dorsetrehabilitationcentre.com.au/
144.9583,-37.7546,JOHN FAWKNER PRIVATE HOSPITAL,PRIVATE,275 MORELAND MORELAND 3058,MORELAND,http://www.johnfawknerprivatehospital.com.au/
145.0416,-38.2301,MOUNT ELIZA REHAB - MORNINGTON,PUBLIC,24 SEPARATION MORNINGTON 3931,MORNINGTON,https://www.peninsulahealth.org.au/services/services-a-z/mount-eliza-rehabilitation-hospital/
145.0496165,-38.22543417,BELEURA PRIVATE HOSPITAL,PRIVATE,925 NEPEAN MORNINGTON PENINSULA 3931,MORNINGTON PENINSULA,https://www.beleuraprivate.com.au/
145.0439287,-38.22774301,MORNINGTON ENDOSCOPY,PRIVATE,350 MAIN MORNINGTON PENINSULA 3931,MORNINGTON PENINSULA,https://morningtonendoscopy.com.au/
145.0413634,-38.22296983,THE BAYS PRIVATE HOSPITAL,PRIVATE,4 VALE MORNINGTON PENINSULA 3931,MORNINGTON PENINSULA,http://www.thebays.com.au/
147.1694,-36.7433,MOUNT BEAUTY PUBLIC HOSPITAL,PUBLIC,2-Aug HOLLONDS MOUNT BEAUTY 3699,MOUNT BEAUTY,http://www.alpinehealth.org.au/
146.7291,-36.5544,MYRTLEFORD PUBLIC HOSPITAL,PUBLIC,30-32 ODONNELL MYRTLEFORD 3737,MYRTLEFORD,http://www.alpinehealth.org.au/
145.1977,-36.0572,NATHALIA PUBLIC HOSPITAL,PUBLIC,36-44 MCDONELL NATHALIA 3638,NATHALIA,http://www.nathaliahospital.org.au/
141.6561,-36.3339,NHILL PUBLIC HOSPITAL,PUBLIC,51 NELSON NHILL 3418,NHILL,https://www.nhillhospital.vic.gov.au/
145.1783,-37.9722,QUEEN ELIZABETH - NOBLE PARK,PUBLIC,37-53 THOMAS NOBLE PARK 3174,NOBLE PARK,https://www.monashhealth.org/patients-visitors/hospitals/queen-elizabeth-centre
144.336,-38.1193,GRACE MCKELLAR CENTRE,PUBLIC,45-99 BALLARAT NORTH GEELONG 3215,NORTH GEELONG,https://www.barwonhealth.org.au/services/item/grace-mckellar-centre
145.4438,-36.1,NUMURKAH PUBLIC HOSPITAL,PUBLIC,2 KATAMATITE-NATHALIA NUMURKAH 3636,NUMURKAH,http://www.numurkahhospital.org.au/
147.5972,-37.0981,OMEO PUBLIC HOSPITAL,PUBLIC,10 EASTON OMEO 3898,OMEO,https://www.odh.net.au/
148.4656,-37.7017,ORBOST PUBLIC HOSPITAL,PUBLIC,104 BOUNDARY ORBOST 3888,ORBOST,http://orbostregionalhealth.com.au/
142.3131,-35.0745,OUYEN PUBLIC HOSPITAL,PUBLIC,28 BRITT OUYEN 3490,OUYEN,https://www.mthcs.com.au/community/ouyen
144.9488,-37.7783,MELBOURNE EXTENDED CARE,PUBLIC,34-56 POPLAR PARKVILLE 3052,PARKVILLE,http://www.mh.org.au/
144.9489,-37.794,ROYAL CHILDRENS HOSPITAL,PUBLIC,50 FLEMINGTON PARKVILLE 3052,PARKVILLE,http://www.rch.org.au/home/
144.9559,-37.7992,ROYAL MELBOURNE HOSPITAL,PUBLIC,300 GRATTAN PARKVILLE 3052,PARKVILLE,https://royal-melbourne-hospital.com.au
144.9551722,-37.79915699,ROYAL WOMENS PUBLIC HOSPITAL,PUBLIC,20 FLEMINGTON PARKVILLE 3052,PARKVILLE,https://royal-womens-public-hospital.com.au
142.2825,-37.8772,PENSHURST PUBLIC HOSPITAL,PUBLIC,146 COBB PENSHURST 3289,PENSHURST,https://www.peninsulahealth.org.au/
142.2271,-38.3815,PORT FAIRY PUBLIC HOSPITAL,PUBLIC,32 VILLIERS PORT FAIRY 3284,PORT FAIRY,https://www.swarh2.com.au/port-fairy/
144.9721367,-37.834298,ALBERT ROAD CLINIC,PRIVATE,31-33 ALBERT PORT PHILLIP 3004,PORT PHILLIP,https://www.ramsaymentalhealth.com.au/albertroad
145.0077,-37.8602,MARIE STOPES - ST KILDA EAST,PRIVATE,338 DANDENONG PORT PHILLIP 3183,PORT PHILLIP,http://www.mariestopes.org.au/
144.9822,-37.8731,ST KILDA DAY HOSPITAL,PRIVATE,26A DICKENS PORT PHILLIP 3184,PORT PHILLIP,http://www.stkilda-hospital.com.au/
144.9803,-37.8506,VISION LASER ST KILDA ROAD,PRIVATE,600-602 ST KILDA PORT PHILLIP 3004,PORT PHILLIP,https://www.wangarattaprivate.com.au/
141.6062,-38.3412,PORTLAND PUBLIC HOSPITAL,PUBLIC,141-151 BENTINCK PORTLAND 3305,PORTLAND,https://pdh.net.au/
141.9951,-35.9041,RAINBOW PUBLIC HOSPITAL,PUBLIC,2 SWINBOURNE RAINBOW 3424,RAINBOW,https://rainbow-public-hospital.com.au
145.2554,-37.807,MAROONDAH PUBLIC HOSPITAL,PUBLIC,Jan-15 DAVEY RINGWOOD EAST 3135,RINGWOOD EAST,https://www.easternhealth.org.au/locations/maroondah-hospital
142.782,-34.5845,ROBINVALE PUBLIC HOSPITAL,PUBLIC,128-132 LATJE ROBINVALE 3549,ROBINVALE,http://www.rdhs.com.au/
144.6978,-36.3665,ROCHESTER PUBLIC HOSPITAL,PUBLIC,1 PASCOE ROCHESTER 3561,ROCHESTER,http://www.redhs.com.au/
142.6315902,-36.6366547,RUPANYUP PUBLIC HOSPITAL,PUBLIC,89-91 CROMIE RUPANYUP 3388,RUPANYUP,https://rupanyup-public-hospital.com.au
145.0085,-36.5879,RUSHWORTH PUBLIC HOSPITAL,PUBLIC,14 COYLE RUSHWORTH 3612,RUSHWORTH,https://rushworth-public-hospital.com.au
147.0808,-38.108,SALE PUBLIC HOSPITAL,PUBLIC,155 GUTHRIDGE SALE 3850,SALE,https://www.cghs.com.au/hospitals/sale-hospital/
145.0185,-37.961,SANDRINGHAM PUBLIC HOSPITAL,PUBLIC,191-193 BLUFF SANDRINGHAM 3191,SANDRINGHAM,https://www.alfredhealth.org.au/sandringham
145.0185,-37.961,SANDRINGHAM WOMENS,PUBLIC,191-193 BLUFF SANDRINGHAM 3191,SANDRINGHAM,https://www.sandringhamwomens.org.au/
142.8577,-35.5005,SEA LAKE AND DISTRICT HOSPITAL,PUBLIC,33-43 MCCLELLAND SEA LAKE 3533,SEA LAKE,https://www.sealakehospital.com.au/
145.1386,-37.0185,SEYMOUR PUBLIC HOSPITAL,PUBLIC,1 BRETONNEUX SEYMOUR 3660,SEYMOUR,http://www.seymourhealth.org.au/
145.4042,-36.3631,GOULBURN VALLEY HEALTH,PUBLIC,Feb-48 GRAHAM SHEPPARTON 3630,SHEPPARTON,https://www.gvhealth.org.au/
143.3676,-37.6842,SKIPTON PUBLIC HOSPITAL,PUBLIC,2 BLAKE SKIPTON 3361,SKIPTON,https://www.swarh2.com.au/skipton/
144.816,-37.7599,WESTERN HOSPITAL - SUNSHINE,PUBLIC,176-190 FURLONG ST ALBANS 3021,ST ALBANS,https://www.westernhealth.org.au/OurSites/SunshineHospital/Pages/default.aspx
143.2465,-36.6094,ST ARNAUD PUBLIC HOSPITAL,PUBLIC,52 NORTH WESTERN ST ARNAUD 3478,ST ARNAUD,https://ewhs.org.au/starnaudcampus.html
142.7814,-37.0594,STAWELL PUBLIC HOSPITAL,PUBLIC,27-29 SLOANE STAWELL 3380,STAWELL,http://www.srh.org.au/
145.0335587,-37.8624645,CABRINI HOSPITAL - MALVERN,PRIVATE,183 WATTLETREE STONNINGTON 3144,STONNINGTON,https://www.cabrini.com.au/locations/cabrini-malvern/
145.008873,-37.8541202,CABRINI HOSPITAL - PRAHRAN,PRIVATE,646-646A HIGH STONNINGTON 3181,STONNINGTON,https://www.cabrini.com.au/locations/cabrini-prahran/
145.0305,-37.8515,MALVERN DIALYSIS CLINIC,PRIVATE,1133 MALVERN STONNINGTON 3144,STONNINGTON,https://www.freseniuskidneycare.asia/center-detail/AUS1002?utm_source=gmb&utm_m%E2%80%A6
145.0608,-37.8671,MALVERN PRIVATE HOSPITAL,PRIVATE,3-Sep WILTON VALE STONNINGTON 3145,STONNINGTON,https://www.malvernprivate.com.au/
145.0393988,-37.86365343,STONNINGTON DAY SURGERY,PRIVATE,253 WATTLETREE STONNINGTON 3144,STONNINGTON,http://www.stonningtondaysurgery.com/
144.9985,-37.855,THE AVENUE PRIVATE HOSPITAL,PRIVATE,40 THE AVENUE STONNINGTON 3181,STONNINGTON,https://www.theavenuehospital.com.au/
145.0282824,-37.86396884,TOORAK - MALVERN DAY SURGERY,PRIVATE,30-32 GLENFERRIE STONNINGTON 3144,STONNINGTON,http://www.tmday.com.au/
144.9972,-37.8481,VICTORIA CLINIC,PRIVATE,320-324 MALVERN STONNINGTON 3181,STONNINGTON,https://www.thevictoriaclinic.com.au/
144.9980639,-37.85608534,WINDSOR PRIVATE HOSPITAL,PRIVATE,20-22 THE AVENUE STONNINGTON 3181,STONNINGTON,https://www.wphospital.com.au/
145.5700935,-36.75917026,EUROA HEALTH,PRIVATE,36 KENNEDY STRATHBOGIE 3666,STRATHBOGIE,https://euroahealth.com.au/
145.1501442,-36.78100413,NAGAMBIE HEALTHCARE,PRIVATE,22 CHURCH STRATHBOGIE 3608,STRATHBOGIE,https://nagambiehc.org.au/
144.7327,-37.5772,SUNBURY PUBLIC HOSPITAL,PUBLIC,7 MACEDON SUNBURY 3429,SUNBURY,https://www.westernhealth.org.au/OurSites/SunburyDayHospital/Pages/default.aspx
143.5566,-35.3406,SWAN HILL PUBLIC HOSPITAL,PUBLIC,50-54 SPLATT SWAN HILL 3585,SWAN HILL,http://www.shdh.org.au/
147.1839,-36.2138,TALLANGATTA PUBLIC HOSPITAL,PUBLIC,25 BARREE TALLANGATTA 3700,TALLANGATTA,http://www.tallangattahealthservice.com.au/
145.2253,-36.4393,TATURA PUBLIC HOSPITAL,PUBLIC,64-68 PARK TATURA 3616,TATURA,http://www.taturahospital.org.au/
142.9024,-38.2394,TERANG PUBLIC HOSPITAL,PUBLIC,13 AUSTIN TERANG 3264,TERANG,https://tmhs.vic.gov.au/
142.9766,-38.4865,TIMBOON PUBLIC HOSPITAL,PUBLIC,21 HOSPITAL TIMBOON 3268,TIMBOON,https://www.timboonhealthcare.com.au/
146.4714,-38.2188,LATROBE REGIONAL HOSPITAL,PUBLIC,10 VILLAGE TRARALGON 3844,TRARALGON,http://www.lrh.com.au/
145.3136,-37.8987,ANGLISS PUBLIC HOSPITAL,PUBLIC,39 ALBERT UPPER FERNTREE GULLY 3156,UPPER FERNTREE GULLY,https://www.easternhealth.org.au/locations/angliss-hospital
146.3143,-36.3543,WANGARATTA BASE HOSPITAL,PUBLIC,35-47 GREEN WANGARATTA 3677,WANGARATTA,https://www.northeasthealth.org.au/wbh/
146.3122,-36.3492,WANGARATTA PRIVATE HOSPITAL,PRIVATE,134-150 TEMPLETON WANGARATTA 3677,WANGARATTA,https://www.wangarattaprivate.com.au/
145.2262,-37.8482,WANTIRNA PUBLIC HOSPITAL,PUBLIC,251 MOUNTAIN WANTIRNA 3152,WANTIRNA,https://www.easternhealth.org.au/locations/wantirna-health
142.3821,-36.2528,WARRACKNABEAL PUBLIC HOSPITAL,PUBLIC,18 DIMBOOLA WARRACKNABEAL 3393,WARRACKNABEAL,https://www.ruralnorthwesthealth.com.au/our-locations/warracknabeal-campus/
145.9275,-38.1728,WARRAGUL PUBLIC HOSPITAL,PUBLIC,41 LANDSBOROUGH WARRAGUL 3820,WARRAGUL,https://www.wghealth.com.au/
142.4740014,-38.38062334,EPWORTH STH WEST REGIONAL CANCER CENTRE,PRIVATE,26 RYOT WARRNAMBOOL 3280,WARRNAMBOOL,https://www.epworth.org.au/Our-Locations/South-West
142.4794,-38.3712,ST JOHN OF GOD - WARRNAMBOOL,PRIVATE,136 BOTANIC WARRNAMBOOL 3280,WARRNAMBOOL,http://www.sjog.org.au/hospitals/warrnambool.aspx
142.4728,-38.3804,WARRNAMBOOL PUBLIC HOSPITAL,PUBLIC,25 RYOT WARRNAMBOOL 3280,WARRNAMBOOL,https://southwesthealthcare.com.au/location/warrnambool-base-hospital/
146.7836685,-37.9768257,HEYFIELD HOSPITAL,PRIVATE,14-16 LICOLA WELLINGTON 3858,WELLINGTON,https://www.cghs.com.au/hospitals/heyfield-hospital/
144.6992,-37.8858,WERRIBEE MERCY HOSPITAL,PUBLIC,300-310 PRINCES WERRIBEE 3030,WERRIBEE,https://health-services.mercyhealth.com.au/our-health-services/werribee-mercy-h%E2%80%A6
145.1552726,-37.83284916,BELLBIRD PRIVATE HOSPITAL,PRIVATE,198 CANTERBURY WHITEHORSE 3130,WHITEHORSE,http://www.bellbirdprivatehospital.com.au/
145.1195572,-37.81455357,EPWORTH HOSPITAL - EASTERN,PRIVATE,1 ARNOLD WHITEHORSE 3128,WHITEHORSE,http://www.epworth.org.au/eastern/home.aspx
145.1664026,-37.83628535,FOREST HILL DIALYSIS,PRIVATE,69 MAHONEYS WHITEHORSE 3131,WHITEHORSE,https://www.peninsulahealth.org.au/services/services-a-z/renal-services/forest-hill-dialysis-clinic/
145.1942034,-37.8113383,MITCHAM PRIVATE HOSPITAL,PRIVATE,36 DONCASTER EAST WHITEHORSE 3132,WHITEHORSE,http://www.mitchamprivate.com.au/
145.1995792,-37.85856492,VERMONT PRIVATE HOSPITAL,PRIVATE,645-647 BURWOOD WHITEHORSE 3133,WHITEHORSE,https://www.vermontprivate.com.au/
145.1195514,-37.81769263,VISION DAY SURGERY EASTERN,PRIVATE,852 WHITEHORSE WHITEHORSE 3128,WHITEHORSE,https://visiondaysurgery.com.au/location/eastern/
145.0618787,-37.69257276,BUNDOORA ENDOSCOPY CENTRE,PRIVATE,119 PLENTY WHITTLESEA 3083,WHITTLESEA,http://www.bundooraendoscopy.com.au/
145.0092046,-37.65005434,EPPING RADIATION ONCOLOGY,PRIVATE,230 COOPER WHITTLESEA 3076,WHITTLESEA,https://www.genesiscare.com/au/our-centres/epping
145.0619,-37.6913,NORTHPARK PRIVATE HOSPITAL,PRIVATE,10 GREENHILLS WHITTLESEA 3083,WHITTLESEA,https://www.northparkprivatehospital.com.au/
142.7459,-37.5451,WILLAURA PUBLIC HOSPITAL,PUBLIC,21 DELACOMBE WILLAURA 3379,WILLAURA,https://eghs.net.au/services/willaura-healthcare
144.8928,-37.8636,WILLIAMSTOWN PUBLIC HOSPITAL,PUBLIC,76A RAILWAY WILLIAMSTOWN 3016,WILLIAMSTOWN,https://www.westernhealth.org.au/OurSites/WilliamstownHospital/Pages/default.aspx
143.9842,-38.2431,WINCHELSEA PUBLIC HOSPITAL,PUBLIC,8 GOSNEY WINCHELSEA 3241,WINCHELSEA,https://www.barwonhealth.org.au/winchelsea
146.8761,-36.1386,MURRAY VALLEY PRIVATE HOSPITAL,PRIVATE,Feb-69 NORDSVAN WODONGA 3690,WODONGA,https://www.murrayvalleyprivate.com.au/
146.8795,-36.1318,WODONGA PUBLIC HOSPITAL,PUBLIC,53-81 VERMONT WODONGA 3690,WODONGA,http://www.awh.org.au/
145.5809,-38.6082,WONTHAGGI PUBLIC HOSPITAL,PUBLIC,235 GRAHAM WONTHAGGI 3995,WONTHAGGI,https://www.basscoasthealth.org.au/
143.234,-36.0787,WYCHEPROOF PUBLIC HOSPITAL,PUBLIC,19 GRANDVIEW WYCHEPROOF 3527,WYCHEPROOF,https://ewhs.org.au/wycheproofcampus.html
144.6867,-37.8905,HOBSONS BAY ENDO - WERRIBEE,PRIVATE,179 PRINCES WYNDHAM 3030,WYNDHAM,https://hobsonhealthcare.com.au/specialties/endoscopy-colonoscopy
144.6797482,-37.87748548,WESTPOINT ENDOSCOPY HOSPITAL,PRIVATE,243 HEATHS WYNDHAM 3030,WYNDHAM,https://www.theendoscopycentre.com.au/
144.7007566,-37.88703673,WYNDHAM CLINIC,PRIVATE,242A HOPPERS WYNDHAM 3030,WYNDHAM,http://www.wyndhamclinic.com.au
144.9928716,-37.81765919,EPWORTH HOSPITAL - RICHMOND,PRIVATE,89 BRIDGE YARRA 3121,YARRA,https://www.epworth.org.au/who-we-are/our-locations/epworth-richmond
144.9745636,-37.80769738,GENESIS CARE ST VINCENTS,PRIVATE,41 VICTORIA YARRA 3065,YARRA,https://www.genesiscare.com/au/our-clinics/genesis-care-st-vincents/
144.9996505,-37.81476267,MELBOURNE CLINIC,PRIVATE,130 CHURCH YARRA 3121,YARRA,https://www.themelbourneclinic.com.au/
144.9760382,-37.80785473,ST VINCENTS PRIVATE HOSPITAL - FITZROY,PRIVATE,59-61 VICTORIA YARRA 3065,YARRA,https://www.svph.org.au/hospitals/fitzroy
146.6781,-38.5571,YARRAM PUBLIC HOSPITAL,PUBLIC,85-91 COMMERCIAL YARRAM 3971,YARRAM,https://www.ydhs.com.au/
146.0068327,-36.01119805,YARRAWONGA PUBLIC HOSPITAL,PUBLIC,33 PIPER YARRAWONGA 3730,YARRAWONGA,https://www.yh.org.au/
145.4313,-37.2139,YEA PUBLIC HOSPITAL,PUBLIC,45 STATION YEA 3717,YEA,http://www.yeahospital.org.au/
